NORAD_CAT_ID,OBJECT_NAME,OBJECT_TYPE,EPOCH,MEAN_MOTION,ECCENTRICITY,INCLINATION,RA_OF_ASC_NODE,ARG_OF_PERICENTER,MEAN_ANOMALY,BSTAR,MEAN_MOTION_DOT,MEAN_MOTION_DDOT,TLE_LINE0,TLE_LINE1,TLE_LINE2,SEMIMAJOR_AXIS,PERIOD,APOGEE,PERIGEE,DECAYED
54179.0,STARLINK-5122,PAYLOAD,2023-06-01 10:32:06,15.08831709,0.0001088,53.2168,228.1814,95.9704,264.1412,-1.4915e-05,-5.25e-06,0.0,0 STARLINK-5122,1 54179U 22141Y   23152.43896405 -.00000525  00000-0 -14915-4 0  9996,2 54179  53.2168 228.1814 0001088  95.9704 264.1412 15.08831709 33042,6917.906,95.438,540.523,539.018,0.0
54179.0,STARLINK-5122,PAYLOAD,2023-06-01 21:39:48,15.08835516,9.73e-05,53.2161,226.1027,84.4553,275.655,4.7617e-05,4.7e-06,0.0,0 STARLINK-5122,1 54179U 22141Y   23152.90264184  .00000470  00000-0  47617-4 0  9993,2 54179  53.2161 226.1027 0000973  84.4553 275.6550 15.08835516 33114,6917.894,95.438,540.432,539.086,0.0
54179.0,STARLINK-5122,PAYLOAD,2023-06-02 10:22:53,15.08841709,9.64e-05,53.2162,223.7239,85.0711,275.0391,6.0124e-05,6.69e-06,0.0,0 STARLINK-5122,1 54179U 22141Y   23153.43255882  .00000669  00000-0  60124-4 0  9995,2 54179  53.2162 223.7239 0000964  85.0711 275.0391 15.08841709 33428,6917.875,95.437,540.407,539.073,0.0
54179.0,STARLINK-5122,PAYLOAD,2023-06-02 21:30:34,15.0885745,8.99e-05,53.2164,221.6428,96.5712,263.5382,-0.00019012,-3.314e-05,0.0,0 STARLINK-5122,1 54179U 22141Y   23153.89623382 -.00003314  00000-0 -19012-3 0  9990,2 54179  53.2164 221.6428 0000899  96.5712 263.5382 15.08857450 33266,6917.827,95.436,540.314,539.07,0.0
54179.0,STARLINK-5122,PAYLOAD,2023-06-03 10:13:40,15.08835821,9.53e-05,53.2161,219.2645,90.6148,269.4953,8.4556e-05,1.058e-05,0.0,0 STARLINK-5122,1 54179U 22141Y   23154.42616543  .00001058  00000-0  84556-4 0  9998,2 54179  53.2161 219.2645 0000953  90.6148 269.4953 15.08835821 33577,6917.893,95.438,540.417,539.099,0.0
54179.0,STARLINK-5122,PAYLOAD,2023-06-03 13:24:26,15.08838463,9.99e-05,53.2164,218.6696,90.0579,270.0528,0.00010596,1.399e-05,0.0,0 STARLINK-5122,1 54179U 22141Y   23154.55864342  .00001399  00000-0  10596-3 0  9994,2 54179  53.2164 218.6696 0000999  90.0579 270.0528 15.08838463 33369,6917.885,95.438,540.441,539.059,0.0
54179.0,STARLINK-5122,PAYLOAD,2023-06-03 21:21:22,15.08836902,0.0001035,53.2164,217.1826,86.424,273.6871,7.3205e-05,8.77e-06,0.0,0 STARLINK-5122,1 54179U 22141Y   23154.88984608  .00000877  00000-0  73205-4 0  9995,2 54179  53.2164 217.1826 0001035  86.4240 273.6871 15.08836902 33416,6917.89,95.438,540.471,539.039,0.0
54179.0,STARLINK-5122,PAYLOAD,2023-06-04 11:39:50,15.08841636,0.0001058,53.2164,214.5063,85.3372,274.7741,4.1619e-05,3.75e-06,0.0,0 STARLINK-5122,1 54179U 22141Y   23155.48600407  .00000375  00000-0  41619-4 0  9991,2 54179  53.2164 214.5063 0001058  85.3372 274.7741 15.08841636 33507,6917.875,95.437,540.472,539.008,0.0
54179.0,STARLINK-5122,PAYLOAD,2023-06-04 21:12:09,15.08842543,0.00011,53.2165,212.7221,83.5031,276.6086,6.9867e-05,8.24e-06,0.0,0 STARLINK-5122,1 54179U 22141Y   23155.88344233  .00000824  00000-0  69867-4 0  9991,2 54179  53.2165 212.7221 0001100  83.5031 276.6086 15.08842543 33561,6917.873,95.437,540.499,538.977,0.0
54179.0,STARLINK-5122,PAYLOAD,2023-06-05 13:06:00,15.08841414,0.0001029,53.2165,209.7477,84.6038,275.5072,5.8509e-05,6.44e-06,0.0,0 STARLINK-5122,1 54179U 22141Y   23156.54584276  .00000644  00000-0  58509-4 0  9999,2 54179  53.2165 209.7477 0001029  84.6038 275.5072 15.08841414 33669,6917.876,95.437,540.453,539.029,0.0
54179.0,STARLINK-5122,PAYLOAD,2023-06-06 11:21:24,15.08844557,9.3e-05,53.2159,205.5845,83.5748,276.535,7.5088e-05,9.08e-06,0.0,0 STARLINK-5122,1 54179U 22141Y   23157.47319943  .00000908  00000-0  75088-4 0  9993,2 54179  53.2159 205.5845 0000930  83.5748 276.5350 15.08844557 33808,6917.866,95.437,540.375,539.088,0.0
54179.0,STARLINK-5122,PAYLOAD,2023-06-07 08:01:25,15.08839629,8.73e-05,53.2155,201.7185,84.1869,275.9222,1.1513e-05,-1.04e-06,0.0,0 STARLINK-5122,1 54179U 22141Y   23158.33432290 -.00000104  00000-0  11513-4 0  9992,2 54179  53.2155 201.7185 0000873  84.1869 275.9222 15.08839629 34161,6917.882,95.438,540.35,539.143,0.0
54179.0,STARLINK-5122,PAYLOAD,2023-06-07 11:12:11,15.08836843,9.06e-05,53.2156,201.1237,86.1419,273.9677,1.6289e-05,-2.8e-07,0.0,0 STARLINK-5122,1 54179U 22141Y   23158.46680467 -.00000028  00000-0  16289-4 0  9997,2 54179  53.2156 201.1237 0000906  86.1419 273.9677 15.08836843 33957,6917.89,95.438,540.382,539.128,0.0
54179.0,STARLINK-5122,PAYLOAD,2023-06-08 09:27:35,15.08839989,9.31e-05,53.2154,196.9606,84.7581,275.3518,2.056e-05,4e-07,0.0,0 STARLINK-5122,1 54179U 22141Y   23159.39416382  .00000040  00000-0  20560-4 0  9993,2 54179  53.2154 196.9606 0000931  84.7581 275.3518 15.08839989 34324,6917.88,95.438,540.389,539.101,0.0
54179.0,STARLINK-5122,PAYLOAD,2023-06-09 09:18:23,15.08836218,9.5e-05,53.2153,192.5012,91.6783,268.4318,6.4272e-05,7.35e-06,0.0,0 STARLINK-5122,1 54179U 22141Y   23160.38776641  .00000735  00000-0  64272-4 0  9990,2 54179  53.2153 192.5012 0000950  91.6783 268.4318 15.08836218 34242,6917.892,95.438,540.414,539.1,0.0
54179.0,STARLINK-5122,PAYLOAD,2023-06-10 02:47:37,15.08834292,9.57e-05,53.2154,189.2304,91.0619,269.0483,1.4888e-05,-5.1e-07,0.0,0 STARLINK-5122,1 54179U 22141Y   23161.11641189 -.00000051  00000-0  14888-4 0  9990,2 54179  53.2154 189.2304 0000957  91.0619 269.0483 15.08834292 34586,6917.898,95.438,540.425,539.101,0.0
54179.0,STARLINK-5122,PAYLOAD,2023-06-10 10:44:33,15.08835266,9.61e-05,53.2153,187.7436,90.2907,269.8195,2.0701e-05,4.2e-07,0.0,0 STARLINK-5122,1 54179U 22141Y   23161.44761211  .00000042  00000-0  20701-4 0  9995,2 54179  53.2153 187.7436 0000961  90.2907 269.8195 15.08835266 34401,6917.895,95.438,540.425,539.095,0.0
54179.0,STARLINK-5122,PAYLOAD,2023-06-10 18:41:29,15.08837618,9.34e-05,53.2153,186.2566,89.265,270.8449,4.5251e-05,4.32e-06,0.0,0 STARLINK-5122,1 54179U 22141Y   23161.77881066  .00000432  00000-0  45251-4 0  9992,2 54179  53.2153 186.2566 0000934  89.2650 270.8449 15.08837618 34454,6917.888,95.438,540.399,539.107,0.0
54179.0,STARLINK-5122,PAYLOAD,2023-06-11 04:13:47,15.08838641,9.06e-05,53.2152,184.4714,85.3988,274.7107,7.743e-05,9.45e-06,0.0,0 STARLINK-5122,1 54179U 22141Y   23162.17624975  .00000945  00000-0  77430-4 0  9994,2 54179  53.2152 184.4714 0000906  85.3988 274.7107 15.08838641 34741,6917.885,95.438,540.376,539.123,0.0
54179.0,STARLINK-5122,PAYLOAD,2023-06-11 10:35:20,15.08841384,9.15e-05,53.2152,183.2818,82.4497,277.6599,8.0088e-05,9.87e-06,0.0,0 STARLINK-5122,1 54179U 22141Y   23162.44120823  .00000987  00000-0  80088-4 0  9996,2 54179  53.2152 183.2818 0000915  82.4497 277.6599 15.08841384 34550,6917.876,95.437,540.374,539.108,0.0
54179.0,STARLINK-5122,PAYLOAD,2023-06-11 18:32:16,15.08840177,8.89e-05,53.2153,181.7948,83.9063,276.203,8.6643e-05,1.091e-05,0.0,0 STARLINK-5122,1 54179U 22141Y   23162.77240866  .00001091  00000-0  86643-4 0  9992,2 54179  53.2153 181.7948 0000889  83.9063 276.2030 15.08840177 34603,6917.88,95.438,540.36,539.13,0.0
54179.0,STARLINK-5122,PAYLOAD,2023-06-12 07:15:21,15.08841458,8.97e-05,53.2153,179.4155,84.4661,275.6433,9.0951e-05,1.16e-05,0.0,0 STARLINK-5122,1 54179U 22141Y   23163.30232782  .00001160  00000-0  90951-4 0  9994,2 54179  53.2153 179.4155 0000897  84.4661 275.6433 15.08841458 34913,6917.876,95.437,540.361,539.12,0.0
54179.0,STARLINK-5122,PAYLOAD,2023-06-12 08:50:44,15.08842696,9.27e-05,53.2153,179.1181,83.9005,276.2093,0.00010195,1.335e-05,0.0,0 STARLINK-5122,1 54179U 22141Y   23163.36856702  .00001335  00000-0  10195-3 0  9999,2 54179  53.2153 179.1181 0000927  83.9005 276.2093 15.08842696 34698,6917.872,95.437,540.378,539.096,0.0
54179.0,STARLINK-5122,PAYLOAD,2023-06-13 00:44:35,15.08840905,9.42e-05,53.2153,176.1444,82.8608,277.2492,3.6047e-05,2.86e-06,0.0,0 STARLINK-5122,1 54179U 22141Y   23164.03096966  .00000286  00000-0  36047-4 0  9991,2 54179  53.2153 176.1444 0000942  82.8608 277.2492 15.08840905 34797,6917.878,95.437,540.394,539.091,0.0
54179.0,STARLINK-5122,PAYLOAD,2023-06-13 18:13:50,15.08841459,9.68e-05,53.2154,172.8739,80.2381,279.872,2.6733e-05,1.38e-06,0.0,0 STARLINK-5122,1 54179U 22141Y   23164.75960859  .00000138  00000-0  26733-4 0  9998,2 54179  53.2154 172.8739 0000968  80.2381 279.8720 15.08841459 35132,6917.876,95.437,540.411,539.071,0.0
54179.0,STARLINK-5122,PAYLOAD,2023-06-14 06:56:55,15.08842667,9.79e-05,53.2154,170.495,80.575,279.5352,3.487e-05,2.67e-06,0.0,0 STARLINK-5122,1 54179U 22141Y   23165.28952710  .00000267  00000-0  34870-4 0  9998,2 54179  53.2154 170.4950 0000979  80.5750 279.5352 15.08842667 34988,6917.872,95.437,540.414,539.06,0.0
54179.0,STARLINK-5122,PAYLOAD,2023-06-15 00:26:10,15.08835921,9.31e-05,53.2152,167.2235,85.6306,274.4793,2.3893e-05,9.3e-07,0.0,0 STARLINK-5122,1 54179U 22141Y   23166.01817175  .00000093  00000-0  23893-4 0  9995,2 54179  53.2152 167.2235 0000931  85.6306 274.4793 15.08835921 35324,6917.893,95.438,540.402,539.114,0.0
54179.0,STARLINK-5122,PAYLOAD,2023-06-15 09:58:29,15.08835311,9.87e-05,53.2155,165.4397,83.0145,277.0959,1.7362e-05,-1.1e-07,0.0,0 STARLINK-5122,1 54179U 22141Y   23166.41561343 -.00000011  00000-0  17362-4 0  9997,2 54179  53.2155 165.4397 0000987  83.0145 277.0959 15.08835311 35157,6917.895,95.438,540.443,539.077,0.0
54179.0,STARLINK-5122,PAYLOAD,2023-06-16 06:38:29,15.08842609,0.0001006,53.2158,161.5743,81.959,278.1516,5.6503e-05,6.12e-06,0.0,0 STARLINK-5122,1 54179U 22141Y   23167.27672887  .00000612  00000-0  56503-4 0  9994,2 54179  53.2158 161.5743 0001006  81.9590 278.1516 15.08842609 35515,6917.872,95.437,540.433,539.041,0.0
54179.0,STARLINK-5122,PAYLOAD,2023-06-16 16:10:48,15.08838193,0.0001031,53.2158,159.7904,81.5088,278.6021,5.5046e-05,5.88e-06,0.0,0 STARLINK-5122,1 54179U 22141Y   23167.67417176  .00000588  00000-0  55046-4 0  9999,2 54179  53.2158 159.7904 0001031  81.5088 278.6021 15.08838193 35349,6917.886,95.438,540.464,539.038,0.0
